CAS-2T & KS-1Q          
1 41847U 16066G   20140.74917101  .00000017  00000-0  13752-4 0  9990
2 41847  98.6563 190.9673 0364847 314.6107  42.5841 14.38063440185294
NAYIF-1 (EO-88)         
1 42017U 17008BX  20140.90249020  .00001234  00000-0  50142-4 0  9999
2 42017  97.3612 208.8797 0007844  70.0724 290.1359 15.26425953181199
MAX VALIER SAT          
1 42778U 17036P   20140.82012126  .00000794  00000-0  37088-4 0  9994
2 42778  97.3071 195.2446 0013877 119.6112 240.6509 15.22572333161372
RADFXSAT (FOX-1B)       
1 43017U 17073E   20140.70259193  .00000288  00000-0  27589-4 0  9999
2 43017  97.7244  54.0487 0257870 143.7730 218.1258 14.78906535134915
FOX-1D (AO-92)          
1 43137U 18004AC  20140.85875792  .00000842  00000-0  37632-4 0  9998
2 43137  97.4467 212.2117 0010054 147.6608 212.5247 15.24072881130695
DIWATA-2B               
1 43678U 18084H   20140.83021168  .00000369  00000-0  42441-4 0  9992
2 43678  97.8793 259.2412 0008427 271.9523  88.0741 14.91630210 84757
ES'HAIL 2               
1 43700U 18090A   20140.84683705  .00000151  00000-0  00000-0 0  9997
2 43700   0.0141 278.9635 0001156 163.3926 126.3038  1.00275672  5429
FOX-1CLIFF (AO-95)      
1 43770U 18099N   20140.72780235  .00000186  00000-0  22289-4 0  9991
2 43770  97.7066 212.6069 0013154 295.2642  64.7215 14.94971079 79628
ITASAT 1                
1 43786U 18099AE  20140.79817369  .00000236  00000-0  26570-4 0  9997
2 43786  97.7081 213.0748 0013744 287.8498  72.1223 14.95312478 79650
JY1SAT (JO-97)          
1 43803U 18099AX  20140.68224624  .00000706  00000-0  68879-4 0  9991
2 43803  97.7044 212.7865 0013517 288.9092  71.0664 14.95488000 79635
PSAT2 (NO-104)          
1 44354U 19036R   20140.90952382  .00006388  00000-0  90894-4 0  9993
2 44354  28.5298 208.0124 0365604   6.3210 354.1833 15.03151309 49524
BRICSAT2 (NO-103)       
1 44355U 19036S   20140.55293983  .00010764  00000-0  14914-3 0  9991
2 44355  28.5294 203.1603 0345811  14.2363 346.7700 15.08177753 49542
JAISAT-1                
1 44419U 19038F   20140.84783927  .00000649  00000-0  40644-4 0  9999
2 44419  97.5364 102.7840 0020265 226.4210 133.5339 15.12742215 48270
DUCHIFAT-3              
1 44854U 19089C   20140.71961279  .00000268  00000-0  28058-4 0  9994
2 44854  36.9664 268.1605 0007946 200.7653 159.2782 14.99051104 23988
RS-44 & BREEZE-KM R/B   
1 44909U 19096E   20140.89970818  .00000009  00000-0  00000-0 0  9997
2 44909  82.5231  14.2898 0216387 293.4845  64.3655 12.79707159 18537
ORBITAL FACTORY 2 (OF-2)
1 45113U 19071C   20140.74137765  .00001413  00000-0  54834-4 0  9996
2 45113  51.6430 142.2375 0012808 316.2734  43.7232 15.33249097 16724
HUSKYSAT-1              
1 45119U 19071J   20140.72393199  .00000989  00000-0  41605-4 0  9994
2 45119  51.6426 142.1217 0012059 312.3998  47.5963 15.33476323 16712
